[{"OBJECT_NAME":"OBJECT B","OBJECT_ID":"2022-023B","EPOCH":"2026-03-09T22:47:53.401632","MEAN_MOTION":15.18262382,"ECCENTRICITY":0.00937159,"INCLINATION":63.476,"RA_OF_ASC_NODE":246.6999,"ARG_OF_PERICENTER":346.6129,"MEAN_ANOMALY":13.2499,"EPHEMERIS_TYPE":0,"CLASSIFICATION_TYPE":"U","NORAD_CAT_ID":51947,"ELEMENT_SET_NO":999,"REV_AT_EPOCH":22265,"BSTAR":0.00086643699,"MEAN_MOTION_DOT":0.00019848,"MEAN_MOTION_DDOT":0},{"OBJECT_NAME":"STARLINK-5974","OBJECT_ID":"2023-058AD","EPOCH":"2026-03-09T21:50:56.837184","MEAN_MOTION":15.05653959,"ECCENTRICITY":0.00017848,"INCLINATION":97.6046,"RA_OF_ASC_NODE":71.4943,"ARG_OF_PERICENTER":84.256,"MEAN_ANOMALY":275.887,"EPHEMERIS_TYPE":0,"CLASSIFICATION_TYPE":"U","NORAD_CAT_ID":56344,"ELEMENT_SET_NO":999,"REV_AT_EPOCH":15823,"BSTAR":7.5029831e-5,"MEAN_MOTION_DOT":1.022e-5,"MEAN_MOTION_DDOT":0}]
